{
  "type": "FeatureCollection",
  "features": [
    {
      "type": "Feature",
      "properties": {
        "norad_id": 36744,
        "name": "COMS 1",
        "group": "weather",
        "lat": 2.3142395120728754,
        "lon": 109.52552162472554,
        "alt_km": 35788.51762112896,
        "timestamp": "2025-12-20T16:47:35.933815+00:00",
        "meta_object_name": "COMS 1",
        "meta_object_id": "2010-032A",
        "meta_epoch": "2025-12-19T21:07:51.684384",
        "meta_mean_motion": 1.00272527,
        "meta_eccentricity": 6.76e-05,
        "meta_inclination": 4.3565,
        "meta_ra_of_asc_node": 77.9191,
        "meta_arg_of_pericenter": 201.7497,
        "meta_mean_anomaly": 254.194,
        "meta_ephemeris_type": 0,
        "meta_classification_type": "U",
        "meta_norad_cat_id": 36744,
        "meta_element_set_no": 999,
        "meta_rev_at_epoch": 4929,
        "meta_bstar": 0,
        "meta_mean_motion_dot": -3.23e-06,
        "meta_mean_motion_ddot": 0,
        "tle_line1": "1 36744U 10032A   25353.88045931 -.00000323  00000+0  00000+0 0  9993",
        "tle_line2": "2 36744   4.3565  77.9191 0000676 201.7497 254.1940  1.00272527 49297"
      },
      "geometry": {
        "type": "Point",
        "coordinates": [
          109.52552162472554,
          2.3142395120728754
        ]
      }
    },
    {
      "type": "Feature",
      "properties": {
        "norad_id": 37214,
        "name": "FENGYUN 3B",
        "group": "weather",
        "lat": -53.25893476702752,
        "lon": -157.51075260806718,
        "alt_km": 852.9071404535243,
        "timestamp": "2025-12-20T16:47:35.933827+00:00",
        "meta_object_name": "FENGYUN 3B",
        "meta_object_id": "2010-059A",
        "meta_epoch": "2025-12-20T12:55:35.683680",
        "meta_mean_motion": 14.14793051,
        "meta_eccentricity": 0.0021696,
        "meta_inclination": 98.99,
        "meta_ra_of_asc_node": 34.5705,
        "meta_arg_of_pericenter": 335.5832,
        "meta_mean_anomaly": 158.674,
        "meta_ephemeris_type": 0,
        "meta_classification_type": "U",
        "meta_norad_cat_id": 37214,
        "meta_element_set_no": 999,
        "meta_rev_at_epoch": 78216,
        "meta_bstar": 0.00017301,
        "meta_mean_motion_dot": 2.89e-06,
        "meta_mean_motion_ddot": 0,
        "tle_line1": "1 37214U 10059A   25354.53860745  .00000289  00000+0  17301-3 0  9992",
        "tle_line2": "2 37214  98.9900  34.5705 0021696 335.5832 158.6740 14.14793051782161"
      },
      "geometry": {
        "type": "Point",
        "coordinates": [
          -157.51075260806718,
          -53.25893476702752
        ]
      }
    },
    {
      "type": "Feature",
      "properties": {
        "norad_id": 37849,
        "name": "SUOMI NPP",
        "group": "weather",
        "lat": -29.987741982613453,
        "lon": 106.85397259444757,
        "alt_km": 833.3814223028448,
        "timestamp": "2025-12-20T16:47:35.933838+00:00",
        "meta_object_name": "SUOMI NPP",
        "meta_object_id": "2011-061A",
        "meta_epoch": "2025-12-17T23:31:21.474624",
        "meta_mean_motion": 14.19515682,
        "meta_eccentricity": 0.00023932,
        "meta_inclination": 98.7779,
        "meta_ra_of_asc_node": 289.2746,
        "meta_arg_of_pericenter": 111.1248,
        "meta_mean_anomaly": 249.0184,
        "meta_ephemeris_type": 0,
        "meta_classification_type": "U",
        "meta_norad_cat_id": 37849,
        "meta_element_set_no": 999,
        "meta_rev_at_epoch": 73273,
        "meta_bstar": 4.8615036e-05,
        "meta_mean_motion_dot": 5.8e-07,
        "meta_mean_motion_ddot": 0,
        "tle_line1": "1 37849U 11061A   25351.98010966  .00000058  00000+0  48615-4 0  9995",
        "tle_line2": "2 37849  98.7779 289.2746 0002393 111.1248 249.0184 14.19515682732735"
      },
      "geometry": {
        "type": "Point",
        "coordinates": [
          106.85397259444757,
          -29.987741982613453
        ]
      }
    },
    {
      "type": "Feature",
      "properties": {
        "norad_id": 38552,
        "name": "METEOSAT-10 (MSG-3)",
        "group": "weather",
        "lat": -4.1920520529862335,
        "lon": -18.250330977677045,
        "alt_km": 35782.37253457879,
        "timestamp": "2025-12-20T16:47:35.933850+00:00",
        "meta_object_name": "METEOSAT-10 (MSG-3)",
        "meta_object_id": "2012-035B",
        "meta_epoch": "2025-12-19T08:07:49.924128",
        "meta_mean_motion": 1.00276524,
        "meta_eccentricity": 6.93e-05,
        "meta_inclination": 4.2433,
        "meta_ra_of_asc_node": 61.706,
        "meta_arg_of_pericenter": 270.066,
        "meta_mean_anomaly": 238.6463,
        "meta_ephemeris_type": 0,
        "meta_classification_type": "U",
        "meta_norad_cat_id": 38552,
        "meta_element_set_no": 999,
        "meta_rev_at_epoch": 4905,
        "meta_bstar": 0,
        "meta_mean_motion_dot": 1.7e-07,
        "meta_mean_motion_ddot": 0,
        "tle_line1": "1 38552U 12035B   25353.33877227  .00000017  00000+0  00000+0 0  9997",
        "tle_line2": "2 38552   4.2433  61.7060 0000693 270.0660 238.6463  1.00276524 49057"
      },
      "geometry": {
        "type": "Point",
        "coordinates": [
          -18.250330977677045,
          -4.1920520529862335
        ]
      }
    },
    {
      "type": "Feature",
      "properties": {
        "norad_id": 38771,
        "name": "METOP-B",
        "group": "weather",
        "lat": 62.047811530827694,
        "lon": -118.74808628005158,
        "alt_km": 812.2658716482501,
        "timestamp": "2025-12-20T16:47:35.933863+00:00",
        "meta_object_name": "METOP-B",
        "meta_object_id": "2012-049A",
        "meta_epoch": "2025-12-20T09:29:20.412960",
        "meta_mean_motion": 14.21411074,
        "meta_eccentricity": 0.0003169,
        "meta_inclination": 98.6788,
        "meta_ra_of_asc_node": 44.224,
        "meta_arg_of_pericenter": 127.8979,
        "meta_mean_anomaly": 232.2486,
        "meta_ephemeris_type": 0,
        "meta_classification_type": "U",
        "meta_norad_cat_id": 38771,
        "meta_element_set_no": 999,
        "meta_rev_at_epoch": 68786,
        "meta_bstar": 6.5558e-05,
        "meta_mean_motion_dot": 1e-06,
        "meta_mean_motion_ddot": 0,
        "tle_line1": "1 38771U 12049A   25354.39537515  .00000100  00000+0  65558-4 0  9992",
        "tle_line2": "2 38771  98.6788  44.2240 0003169 127.8979 232.2486 14.21411074687869"
      },
      "geometry": {
        "type": "Point",
        "coordinates": [
          -118.74808628005158,
          62.047811530827694
        ]
      }
    },
    {
      "type": "Feature",
      "properties": {
        "norad_id": 39216,
        "name": "INSAT-3D",
        "group": "weather",
        "lat": 0.6668212114764908,
        "lon": 110.87419323305377,
        "alt_km": 35789.04733986983,
        "timestamp": "2025-12-20T16:47:35.933875+00:00",
        "meta_object_name": "INSAT-3D",
        "meta_object_id": "2013-038B",
        "meta_epoch": "2025-12-20T10:25:17.249952",
        "meta_mean_motion": 1.0027714,
        "meta_eccentricity": 0.0001791,
        "meta_inclination": 1.4636,
        "meta_ra_of_asc_node": 84.9116,
        "meta_arg_of_pericenter": 152.2849,
        "meta_mean_anomaly": 137.8647,
        "meta_ephemeris_type": 0,
        "meta_classification_type": "U",
        "meta_norad_cat_id": 39216,
        "meta_element_set_no": 999,
        "meta_rev_at_epoch": 4528,
        "meta_bstar": 0,
        "meta_mean_motion_dot": -3.16e-06,
        "meta_mean_motion_ddot": 0,
        "tle_line1": "1 39216U 13038B   25354.43422743 -.00000316  00000+0  00000+0 0  9993",
        "tle_line2": "2 39216   1.4636  84.9116 0001791 152.2849 137.8647  1.00277140 45288"
      },
      "geometry": {
        "type": "Point",
        "coordinates": [
          110.87419323305377,
          0.6668212114764908
        ]
      }
    },
    {
      "type": "Feature",
      "properties": {
        "norad_id": 39260,
        "name": "FENGYUN 3C",
        "group": "weather",
        "lat": -19.98959734705494,
        "lon": 148.88081661939003,
        "alt_km": 835.606219733947,
        "timestamp": "2025-12-20T16:47:35.933886+00:00",
        "meta_object_name": "FENGYUN 3C",
        "meta_object_id": "2013-052A",
        "meta_epoch": "2025-12-20T12:27:32.414688",
        "meta_mean_motion": 14.15698519,
        "meta_eccentricity": 0.0014717,
        "meta_inclination": 98.4771,
        "meta_ra_of_asc_node": 331.8189,
        "meta_arg_of_pericenter": 173.3689,
        "meta_mean_anomaly": 186.7684,
        "meta_ephemeris_type": 0,
        "meta_classification_type": "U",
        "meta_norad_cat_id": 39260,
        "meta_element_set_no": 999,
        "meta_rev_at_epoch": 63328,
        "meta_bstar": 4.2111e-05,
        "meta_mean_motion_dot": 4.2e-07,
        "meta_mean_motion_ddot": 0,
        "tle_line1": "1 39260U 13052A   25354.51912517  .00000042  00000+0  42111-4 0  9999",
        "tle_line2": "2 39260  98.4771 331.8189 0014717 173.3689 186.7684 14.15698519633289"
      },
      "geometry": {
        "type": "Point",
        "coordinates": [
          148.88081661939003,
          -19.98959734705494
        ]
      }
    }
  ]
}